NORAD_CAT_ID,OBJECT_NAME,OBJECT_TYPE,EPOCH,MEAN_MOTION,ECCENTRICITY,INCLINATION,RA_OF_ASC_NODE,ARG_OF_PERICENTER,MEAN_ANOMALY,BSTAR,MEAN_MOTION_DOT,MEAN_MOTION_DDOT,TLE_LINE0,TLE_LINE1,TLE_LINE2,SEMIMAJOR_AXIS,PERIOD,APOGEE,PERIGEE,DECAYED
52368.0,STARLINK-3834,PAYLOAD,2022-09-07 22:00:00,15.08849897,0.0001979,53.2158,169.7497,57.2209,216.238,-0.00095702,-0.00015491,0.0,0 STARLINK-3834,1 52368U 22045AP  22250.91667824 -.00015491  00000-0 -95702-3 0  9999,2 52368  53.2158 169.7497 0001979  57.2209 216.2380 15.08849897  1309,6917.85,95.437,541.0840000000002,538.346,0.0
52368.0,STARLINK-3834,PAYLOAD,2022-09-08 14:00:01,15.08816726,0.0001849,53.2159,166.7563,56.8232,239.8517,0.0017251999999999,0.00027258,0.0,0 STARLINK-3834,1 52368U 22045AP  22251.58334491  .00027258  00000-0  17252-2 0  9999,2 52368  53.2159 166.7563 0001849  56.8232 239.8517 15.08816726  1306,6917.9519999999975,95.439,541.096,538.5369999999998,0.0
52368.0,STARLINK-3834,PAYLOAD,2022-09-08 22:00:00,15.08854626,0.0001885,53.216,165.2608,56.5125,251.7421,-0.0010199999999999,-0.00016492,0.0,0 STARLINK-3834,1 52368U 22045AP  22251.91667824 -.00016492  00000-0 -10200-2 0  9991,2 52368  53.2160 165.2608 0001885  56.5125 251.7421 15.08854626 23009,6917.8359999999975,95.437,541.005,538.3969999999998,0.0
52368.0,STARLINK-3834,PAYLOAD,2022-09-09 14:00:01,15.08811841,0.0001732,53.2157,162.2674,57.1944,274.2835,0.0031339,0.00049903,0.0,0 STARLINK-3834,1 52368U 22045AP  22252.58334491  .00049903  00000-0  31339-2 0  9993,2 52368  53.2157 162.2674 0001732  57.1944 274.2835 15.08811841  1302,6917.965999999999,95.439,541.03,538.633,0.0
52368.0,STARLINK-3834,PAYLOAD,2022-09-09 22:00:00,15.08859629,0.0001798,53.2158,160.77200000000005,56.59,286.4674,-0.0010808,-0.00017457,0.0,0 STARLINK-3834,1 52368U 22045AP  22252.91667824 -.00017457  00000-0 -10808-2 0  9998,2 52368  53.2158 160.7720 0001798  56.5900 286.4674 15.08859629 23154,6917.82,95.436,540.929,538.442,0.0
52368.0,STARLINK-3834,PAYLOAD,2022-09-10 14:00:01,15.08808295,0.0001657,53.2152,157.7783,57.0668,309.2085,0.0033775999999999,0.00053831,0.0,0 STARLINK-3834,1 52368U 22045AP  22253.58334491  .00053831  00000-0  33776-2 0  9996,2 52368  53.2152 157.7783 0001657  57.0668 309.2085 15.08808295  1300,6917.977,95.44,540.989,538.696,0.0
52368.0,STARLINK-3834,PAYLOAD,2022-09-10 22:00:00,15.08869755,0.0001738,53.2152,156.2831,54.6076,323.2447,-0.0039338,-0.00062404,0.0,0 STARLINK-3834,1 52368U 22045AP  22253.91667824 -.00062404  00000-0 -39338-2 0  9990,2 52368  53.2152 156.2831 0001738  54.6076 323.2447 15.08869755  1300,6917.7890000000025,95.436,540.857,538.452,0.0
52368.0,STARLINK-3834,PAYLOAD,2022-09-11 06:00:00,15.08817925,0.0001754,53.2149,154.7871,48.5579,340.901,0.001577,0.00024884,0.0,0 STARLINK-3834,1 52368U 22045AP  22254.25001157  .00024884  00000-0  15770-2 0  9991,2 52368  53.2149 154.7871 0001754  48.5579 340.9010 15.08817925 23365,6917.948,95.439,541.026,538.599,0.0
52368.0,STARLINK-3834,PAYLOAD,2022-09-11 14:00:01,15.08815467,0.0001615,53.2146,153.2891,55.2595,345.8018,0.0036208,0.00057771,0.0,0 STARLINK-3834,1 52368U 22045AP  22254.58334491  .00057771  00000-0  36208-2 0  9997,2 52368  53.2146 153.2891 0001615  55.2595 345.8018 15.08815467  1308,6917.955,95.439,540.938,538.703,0.0
52368.0,STARLINK-3834,PAYLOAD,2022-09-11 22:00:00,15.08875469,0.0001728,53.2146,151.79399999999995,52.7565,359.8921,-0.004253,-0.00067408,0.0,0 STARLINK-3834,1 52368U 22045AP  22254.91667824 -.00067408  00000-0 -42530-2 0  9998,2 52368  53.2146 151.7940 0001728  52.7565 359.8921 15.08875469  1306,6917.772,95.435,540.832,538.442,0.0
52368.0,STARLINK-3834,PAYLOAD,2022-09-12 06:00:00,15.08844911,0.0001784,53.2143,150.2978,47.3464,16.91,-0.0013491,-0.00021698,0.0,0 STARLINK-3834,1 52368U 22045AP  22255.25001157 -.00021698  00000-0 -13491-2 0  9992,2 52368  53.2143 150.2978 0001784  47.3464  16.9100 15.08844911 23513,6917.865,95.437,540.965,538.496,0.0
52368.0,STARLINK-3834,PAYLOAD,2022-09-12 14:00:01,15.08799651,0.0001692,53.2144,148.7996,55.8952,19.9648,0.0037494,0.00059824,0.0,0 STARLINK-3834,1 52368U 22045AP  22255.58334491  .00059824  00000-0  37494-2 0  9997,2 52368  53.2144 148.7996 0001692  55.8952  19.9648 15.08799651  1303,6918.004,95.44,541.039,538.698,0.0
52368.0,STARLINK-3834,PAYLOAD,2022-09-12 22:00:00,15.08860681,0.000183,53.2144,147.3045,52.9171,34.5119,-0.0028526,-0.00045428,0.0,0 STARLINK-3834,1 52368U 22045AP  22255.91667824 -.00045428  00000-0 -28526-2 0  9996,2 52368  53.2144 147.3045 0001830  52.9171  34.5119 15.08860681  1306,6917.816999999999,95.436,540.948,538.4159999999998,0.0
52368.0,STARLINK-3834,PAYLOAD,2022-09-13 14:00:01,15.08817805,0.0001626999999999,53.2144,144.3101,53.2777,57.3368,0.0026383,0.00041925,0.0,0 STARLINK-3834,1 52368U 22045AP  22256.58334491  .00041925  00000-0  26383-2 0  9996,2 52368  53.2144 144.3101 0001627  53.2777  57.3368 15.08817805  1305,6917.948,95.439,540.939,538.688,0.0
52368.0,STARLINK-3834,PAYLOAD,2022-09-13 16:00:00,15.0884307,0.0001643,53.2147,143.9357,56.4417,147.0612,1.376e-07,-2.86e-06,0.0,0 STARLINK-3834,1 52368U 22045AP  22256.66667824 -.00000286  00000-0  13760-6 0  9999,2 52368  53.2147 143.9357 0001643  56.4417 147.0612 15.08843070 23722,6917.871,95.437,540.873,538.599,0.0
52368.0,STARLINK-3834,PAYLOAD,2022-09-13 22:00:00,15.08837477,0.0001744,53.2145,142.8151,49.5501,72.6453,-0.001991,-0.00031833,0.0,0 STARLINK-3834,1 52368U 22045AP  22256.91667824 -.00031833  00000-0 -19910-2 0  9999,2 52368  53.2145 142.8151 0001744  49.5501  72.6453 15.08837477  1309,6917.888000000001,95.438,540.96,538.547,0.0
52368.0,STARLINK-3834,PAYLOAD,2022-09-14 06:00:00,15.08827321,0.0001796,53.2144,141.3187,45.368,88.3948,0.00040967,6.236e-05,0.0,0 STARLINK-3834,1 52368U 22045AP  22257.25001157  .00006236  00000-0  40967-3 0  9992,2 52368  53.2144 141.3187 0001796  45.3680  88.3948 15.08827321 23810,6917.919,95.438,541.0269999999998,538.5419999999998,0.0
52368.0,STARLINK-3834,PAYLOAD,2022-09-14 14:00:01,15.08815181,0.0001626,53.2146,139.8207,51.8597,93.4913,0.0032241,0.00051363,0.0,0 STARLINK-3834,1 52368U 22045AP  22257.58334491  .00051363  00000-0  32241-2 0  9994,2 52368  53.2146 139.8207 0001626  51.8597  93.4913 15.08815181  1308,6917.956,95.439,540.946,538.696,0.0
52368.0,STARLINK-3834,PAYLOAD,2022-09-14 22:00:00,15.08859259,0.0001740999999999,53.2147,138.3257,47.9116,109.0275,-0.0032354999999999,-0.00051441,0.0,0 STARLINK-3834,1 52368U 22045AP  22257.91667824 -.00051441  00000-0 -32355-2 0  9995,2 52368  53.2147 138.3257 0001741  47.9116 109.0275 15.08859259  1308,6917.821999999999,95.436,540.891,538.482,0.0
52368.0,STARLINK-3834,PAYLOAD,2022-09-15 14:00:01,15.08827135,0.0001551,53.2148,135.3313,50.5314,129.5999,0.0030444,0.0004847999999999,0.0,0 STARLINK-3834,1 52368U 22045AP  22258.58334491  .00048480  00000-0  30444-2 0  9994,2 52368  53.2148 135.3313 0001551  50.5314 129.5999 15.08827135  1306,6917.92,95.438,540.8580000000002,538.712,0.0
52368.0,STARLINK-3834,PAYLOAD,2022-09-15 21:09:14,15.08830823,0.0001940999999999,53.2163,133.9961,50.4967,309.6197,0.00012071,1.633e-05,0.0,0 STARLINK-3834,1 52368U 22045AP  22258.88142317  .00001633  00000-0  12071-3 0  9997,2 52368  53.2163 133.9961 0001941  50.4967 309.6197 15.08830823 24069,6917.908,95.438,541.116,538.431,0.0
52368.0,STARLINK-3834,PAYLOAD,2022-09-15 22:44:37,15.08832581,0.0001895,53.2176,133.6995,58.1333,301.9844,0.0002018,2.924e-05,0.0,0 STARLINK-3834,1 52368U 22045AP  22258.94765950  .00002924  00000-0  20180-3 0  9992,2 52368  53.2176 133.6995 0001895  58.1333 301.9844 15.08832581 24075,6917.903,95.438,541.0790000000002,538.457,0.0
52368.0,STARLINK-3834,PAYLOAD,2022-09-16 08:16:57,15.08829254,0.0001879,53.2164,131.9148,53.534,306.5825,9.7135e-05,1.258e-05,0.0,0 STARLINK-3834,1 52368U 22045AP  22259.34510667  .00001258  00000-0  97135-4 0  9994,2 52368  53.2164 131.9148 0001879  53.5340 306.5825 15.08829254 24132,6917.913000000001,95.438,541.078,538.4780000000002,0.0
52368.0,STARLINK-3834,PAYLOAD,2022-09-16 21:00:01,15.08844283,0.0001549,53.216,129.5337,54.1386,305.975,5.9645e-05,6.61e-06,0.0,0 STARLINK-3834,1 52368U 22045AP  22259.87501737  .00000661  00000-0  59645-4 0  9991,2 52368  53.2160 129.5337 0001549  54.1386 305.9750 15.08844283 24210,6917.8669999999975,95.437,540.804,538.661,0.0
52368.0,STARLINK-3834,PAYLOAD,2022-09-17 01:46:12,15.08830262,0.0001720999999999,53.2166,128.6425,53.1011,307.0138,-5.3967e-05,-1.147e-05,0.0,0 STARLINK-3834,1 52368U 22045AP  22260.07375009 -.00001147  00000-0 -53967-4 0  9999,2 52368  53.2166 128.6425 0001721  53.1011 307.0138 15.08830262 24248,6917.91,95.438,540.966,538.585,0.0
52368.0,STARLINK-3834,PAYLOAD,2022-09-17 08:07:44,15.0882896,0.0001709,53.2164,127.4528,51.1949,308.9195,5.469500000000002e-06,-2.01e-06,0.0,0 STARLINK-3834,1 52368U 22045AP  22260.33871050 -.00000201  00000-0  54695-5 0  9994,2 52368  53.2164 127.4528 0001709  51.1949 308.9195 15.08828960 24280,6917.9140000000025,95.438,540.961,538.597,0.0
52368.0,STARLINK-3834,PAYLOAD,2022-09-17 20:50:49,15.088392,0.0001692,53.216,125.0732,50.2633,309.8508,-2.3266e-07,-2.92e-06,0.0,0 STARLINK-3834,1 52368U 22045AP  22260.86862640 -.00000292  00000-0 -23266-6 0  9999,2 52368  53.2160 125.0732 0001692  50.2633 309.8508 15.08839200 24364,6917.8830000000025,95.438,540.918,538.577,0.0
52368.0,STARLINK-3834,PAYLOAD,2022-09-18 03:12:21,15.08843997,0.000169,53.2159,123.8836,50.0124,310.1016,4.7153e-05,4.63e-06,0.0,0 STARLINK-3834,1 52368U 22045AP  22261.13358258  .00000463  00000-0  47153-4 0  9992,2 52368  53.2159 123.8836 0001690  50.0124 310.1016 15.08843997 24406,6917.868,95.437,540.9019999999998,538.564,0.0
52368.0,STARLINK-3834,PAYLOAD,2022-09-18 19:06:12,15.08870331,0.0001831,53.2156,120.9094,45.5674,314.5468,-0.00041721,-6.928e-05,0.0,0 STARLINK-3834,1 52368U 22045AP  22261.79597282 -.00006928  00000-0 -41721-3 0  9994,2 52368  53.2156 120.9094 0001831  45.5674 314.5468 15.08870331 24505,6917.788000000001,95.436,540.919,538.386,0.0
